[{"OBJECT_NAME":"STARLINK-2732","OBJECT_ID":"2021-044J","EPOCH":"2026-03-09T12:25:10.609824","MEAN_MOTION":15.30198607,"ECCENTRICITY":0.00013938,"INCLINATION":53.1602,"RA_OF_ASC_NODE":114.6961,"ARG_OF_PERICENTER":91.9963,"MEAN_ANOMALY":268.1197,"EPHEMERIS_TYPE":0,"CLASSIFICATION_TYPE":"U","NORAD_CAT_ID":48646,"ELEMENT_SET_NO":999,"REV_AT_EPOCH":26380,"BSTAR":6.5998074e-5,"MEAN_MOTION_DOT":1.596e-5,"MEAN_MOTION_DDOT":0},{"OBJECT_NAME":"COSMOS 1263","OBJECT_ID":"1981-033A","EPOCH":"2026-03-09T22:16:18.723072","MEAN_MOTION":14.29193035,"ECCENTRICITY":0.05805392,"INCLINATION":82.8561,"RA_OF_ASC_NODE":296.4467,"ARG_OF_PERICENTER":35.3286,"MEAN_ANOMALY":328.4954,"EPHEMERIS_TYPE":0,"CLASSIFICATION_TYPE":"U","NORAD_CAT_ID":12388,"ELEMENT_SET_NO":999,"REV_AT_EPOCH":25724,"BSTAR":0.00036478764,"MEAN_MOTION_DOT":6.481e-5,"MEAN_MOTION_DDOT":0}]
